INTELSAT 35E (IS-35E)   
1 42818U 17041A   26166.46604502 -.00000235  00000+0  00000+0 0  9993
2 42818   0.0155 316.3305 0001590 122.6631 318.0353  1.00269221 32790
COSMOS 2520             
1 42907U 17046A   26165.91152602  .00000142  00000+0  00000+0 0  9991
2 42907   0.0492  86.3469 0001203  36.5461 153.4587  1.00270588 32375
TDRS 13                 
1 42915U 17047A   26166.39929486 -.00000099  00000+0  00000+0 0  9998
2 42915   3.4512   2.6947 0014412 106.3581 286.9405  1.00271392 32332
QZS-3 (MICHIBIKI-3)     
1 42917U 17048A   26166.40600233  .00000000  00000+0  00000+0 0  9990
2 42917   0.0286 151.4721 0002441 301.5367  83.7722  1.00263567 32248
AMAZONAS 5              
1 42934U 17053A   26166.46084500 -.00000280  00000+0  00000+0 0  9995
2 42934   0.0317 326.7301 0002051  63.4336 338.4803  1.00269029 32025
ASIASAT 9               
1 42942U 17057A   26166.35452458  .00000000  00000+0  00000+0 0  9996
2 42942   0.0420  47.1442 0002477  30.2494  76.0273  1.00263930 31848
INTELSAT 37E (IS-37E)   
1 42950U 17059A   26166.39790821 -.00000137  00000+0  00000+0 0  9992
2 42950   0.0184  20.8353 0002330  85.6069 282.5015  1.00271794 32041
BSAT-4A                 
1 42951U 17059B   26165.81711391 -.00000344  00000+0  00000+0 0  9994
2 42951   0.0440  28.2570 0003862  39.4526 239.3850  1.00269277 31775
QZS-4 (MICHIBIKI-4)     
1 42965U 17062A   26166.35591125 -.00000342  00000+0  00000+0 0  9992
2 42965  40.1089 343.5053 0745224 271.7370 273.6485  1.00250711 31785
SES-11 (ECHOSTAR 105)   
1 42967U 17063A   26166.43565373 -.00000086  00000+0  00000+0 0  9995
2 42967   0.0186 330.2117 0002711  98.2102 247.1886  1.00270642 31704
KOREASAT 5A             
1 42984U 17067A   26166.42399498 -.00000355  00000+0  00000+0 0  9999
2 42984   0.0109  16.6670 0000554  74.9499  77.8833  1.00271588 31519
ALCOMSAT 1              
1 43039U 17078A   26166.46795170 -.00000183  00000+0  00000+0 0  9993
2 43039   0.0367 265.8369 0002214 166.8664 334.7131  1.00269493 31271
SBIRS GEO-3 (USA 282)   
1 43162U 18009A   26166.44134491  .00000130  00000+0  00000+0 0  9997
2 43162   2.1827  12.0295 0001794  64.1131 187.0677  1.00271707 30828
AL YAH 3                
1 43174U 18012A   26166.46864505 -.00000154  00000+0  00000+0 0  9999
2 43174   1.5477  83.1277 0003848   0.0199 329.2053  1.00269963 30828
SES-14                  
1 43175U 18012B   26166.46353169 -.00000276  00000+0  00000+0 0  9994
2 43175   0.0191  24.5472 0000788  55.0745 303.4955  1.00270372  7004
GOES 17                 
1 43226U 18022A   26166.45521163 -.00000180  00000+0  00000+0 0  9996
2 43226   0.9331  85.7405 0000399  34.0768 218.2957  1.00269922 30405
HISPASAT 30W-6          
1 43228U 18023A   26166.39565485 -.00000213  00000+0  00000+0 0  9994
2 43228   0.0464  42.0718 0005656  27.7528 306.2891  1.00270123 30389
SUPERBIRD-B3            
1 43271U 18033A   26166.51433785 -.00000090  00000+0  00000+0 0  9997
2 43271   0.0103 327.9856 0000903 106.6420 176.3357  1.00271449 30041
HYLAS 4                 
1 43272U 18033B   26166.46630502 -.00000231  00000+0  00000+0 0  9995
2 43272   0.0166  18.5851 0000774  56.5712 322.9643  1.00268893 30048
IRNSS-1I                
1 43286U 18035A   26165.84199394  .00000064  00000+0  00000+0 0  9995
2 43286  28.7494  74.2326 0017858 181.5121   5.3509  1.00271722 30053
USA 283                 
1 43339U 18036A   26163.71911426  .00000000  00000+0  00000+0 0  9997
2 43339   0.0199 335.2360 0000436 187.5113 131.2828  1.00273175 25248
COSMOS 2526             
1 43432U 18037A   26166.28440800 -.00000341  00000+0  00000+0 0  9999
2 43432   0.0281  33.0148 0000685 175.0713 285.9381  1.00271216 29941
APSTAR-6C               
1 43450U 18041A   26166.49948148 -.00000315  00000+0  00000+0 0  9996
2 43450   0.0245   4.8727 0000996 335.4861 237.2442  1.00269569 29790
BANGABANDHUSAT-1        
1 43463U 18044A   26166.35391792 -.00000359  00000+0  00000+0 0  9993
2 43463   0.0168  64.2957 0001598  16.0244  69.8317  1.00270672 29695
SES-12                  
1 43488U 18049A   26166.42044162 -.00000267  00000+0  00000+0 0  9997
2 43488   0.0142   7.6623 0001007 270.0966 232.3217  1.00272153 29404
FENGYUN 2H              
1 43491U 18050A   26166.48867093 -.00000129  00000+0  00000+0 0  9992
2 43491   3.0258  79.0896 0001958 137.7506 302.2703  1.00269740 29425
BEIDOU-2 IGSO-7         
1 43539U 18057A   26165.92400608 -.00000011  00000+0  00000+0 0  9995
2 43539  55.1939 163.0777 0105015 237.9971 304.9149  1.00251741 29102
TELSTAR 19V             
1 43562U 18059A   26166.24653449 -.00000276  00000+0  00000+0 0  9995
2 43562   0.0197 163.3787 0002418 312.0896 173.8125  1.00269701 29125
TELKOM 4 (MERAH PUTIH)  
1 43587U 18064A   26166.28033464 -.00000340  00000+0  00000+0 0  9993
2 43587   0.0197  66.5028 0001226  48.8212 357.1595  1.00270117 28867
TELSTAR 18V             
1 43611U 18069A   26165.78730205 -.00000288  00000+0  00000+0 0  9998
2 43611   0.0122 311.2047 0001612 128.7151 244.5797  1.00270067 28613
AZERSPACE 2 (IS-38)     
1 43632U 18074A   26166.48182421  .00000139  00000+0  00000+0 0  9990
2 43632   0.0085 316.4310 0001187 126.2680  39.6323  1.00269834 28439
HORIZONS-3E             
1 43633U 18074B   26165.65084600 -.00000024  00000+0  00000+0 0  9993
2 43633   0.0187 163.9480 0000966 106.2603  36.0409  1.00270601 28310
