OBJECT_NAME,OBJECT_ID,EPOCH,MEAN_MOTION,ECCENTRICITY,INCLINATION,RA_OF_ASC_NODE,ARG_OF_PERICENTER,MEAN_ANOMALY,EPHEMERIS_TYPE,CLASSIFICATION_TYPE,NORAD_CAT_ID,ELEMENT_SET_NO,REV_AT_EPOCH,BSTAR,MEAN_MOTION_DOT,MEAN_MOTION_DDOT
INTELSAT 35E (IS-35E),2017-041A,2026-06-15T11:11:06.289728,1.00269221,.000159,0.0155,316.3305,122.6631,318.0353,0,U,42818,999,3279,0,-.235E-5,0
COSMOS 2520,2017-046A,2026-06-14T21:52:35.848128,1.00270588,.00012035,0.0492,86.3469,36.5461,153.4587,0,U,42907,999,3237,0,.142E-5,0
TDRS 13,2017-047A,2026-06-15T09:34:59.075904,1.00271392,.0014412,3.4512,2.6947,106.3581,286.9405,0,U,42915,999,3233,0,-.99E-6,0
QZS-3 (MICHIBIKI-3),2017-048A,2026-06-15T09:44:38.601312,1.00263567,.0002441,0.0286,151.4721,301.5367,83.7722,0,U,42917,999,3224,0,0,0
AMAZONAS 5,2017-053A,2026-06-15T11:03:37.008000,1.00269029,.0002051,0.0317,326.7301,63.4336,338.4803,0,U,42934,999,3202,0,-.28E-5,0
ASIASAT 9,2017-057A,2026-06-15T08:30:30.923712,1.00263930,.0002477,0.0420,47.1442,30.2494,76.0273,0,U,42942,999,3184,0,0,0
INTELSAT 37E (IS-37E),2017-059A,2026-06-15T09:32:59.269344,1.00271794,.000233,0.0184,20.8353,85.6069,282.5015,0,U,42950,999,3204,0,-.137E-5,0
BSAT-4A,2017-059B,2026-06-14T19:36:38.641824,1.00269277,.00038622,0.0440,28.2570,39.4526,239.3850,0,U,42951,999,3177,0,-.344E-5,0
QZS-4 (MICHIBIKI-4),2017-062A,2026-06-15T08:32:30.732000,1.00250711,.0745224,40.1089,343.5053,271.7370,273.6485,0,U,42965,999,3178,0,-.342E-5,0
SES-11 (ECHOSTAR 105),2017-063A,2026-06-15T10:27:20.482272,1.00270642,.0002711,0.0186,330.2117,98.2102,247.1886,0,U,42967,999,3170,0,-.86E-6,0
KOREASAT 5A,2017-067A,2026-06-15T10:10:33.166272,1.00271588,.0000554,0.0109,16.6670,74.9499,77.8833,0,U,42984,999,3151,0,-.355E-5,0
ALCOMSAT 1,2017-078A,2026-06-15T11:13:51.026880,1.00269493,.0002214,0.0367,265.8369,166.8664,334.7131,0,U,43039,999,3127,0,-.183E-5,0
SBIRS GEO-3 (USA 282),2018-009A,2026-06-15T10:35:32.200224,1.00271707,.0001794,2.1827,12.0295,64.1131,187.0677,0,U,43162,999,3082,0,.13E-5,0
AL YAH 3,2018-012A,2026-06-15T11:14:50.932320,1.00269963,.0003848,1.5477,83.1277,0.0199,329.2053,0,U,43174,999,3082,0,-.154E-5,0
SES-14,2018-012B,2026-06-15T11:07:29.138016,1.00270372,.0000788,0.0191,24.5472,55.0745,303.4955,0,U,43175,999,700,0,-.276E-5,0
GOES 17,2018-022A,2026-06-15T10:55:30.284832,1.00269922,.0000399,0.9331,85.7405,34.0768,218.2957,0,U,43226,999,3040,0,-.18E-5,0
HISPASAT 30W-6,2018-023A,2026-06-15T09:29:44.579040,1.00270123,.0005656,0.0464,42.0718,27.7528,306.2891,0,U,43228,999,3038,0,-.213E-5,0
SUPERBIRD-B3,2018-033A,2026-06-15T12:20:38.790240,1.00271449,.0000903,0.0103,327.9856,106.6420,176.3357,0,U,43271,999,3004,0,-.9E-6,0
HYLAS 4,2018-033B,2026-06-15T11:11:28.753728,1.00268893,.0000774,0.0166,18.5851,56.5712,322.9643,0,U,43272,999,3004,0,-.231E-5,0
IRNSS-1I,2018-035A,2026-06-14T20:12:28.276416,1.00271722,.00178583,28.7494,74.2326,181.5121,5.3509,0,U,43286,999,3005,0,.64E-6,0
USA 283,2018-036A,2026-06-12T17:15:31.472064,1.00273175,.0000436,0.0199,335.2360,187.5113,131.2828,0,U,43339,999,2524,0,0,0
COSMOS 2526,2018-037A,2026-06-15T06:49:32.851200,1.00271216,.0000685,0.0281,33.0148,175.0713,285.9381,0,U,43432,999,2994,0,-.341E-5,0
APSTAR-6C,2018-041A,2026-06-15T11:59:15.199872,1.00269569,.0000996,0.0245,4.8727,335.4861,237.2442,0,U,43450,999,2979,0,-.315E-5,0
BANGABANDHUSAT-1,2018-044A,2026-06-15T08:29:38.508288,1.00270672,.0001598,0.0168,64.2957,16.0244,69.8317,0,U,43463,999,2969,0,-.359E-5,0
SES-12,2018-049A,2026-06-15T10:05:26.155968,1.00272153,.0001007,0.0142,7.6623,270.0966,232.3217,0,U,43488,999,2940,0,-.267E-5,0
FENGYUN 2H,2018-050A,2026-06-15T11:43:41.168352,1.00269740,.0001958,3.0258,79.0896,137.7506,302.2703,0,U,43491,999,2942,0,-.129E-5,0
BEIDOU-2 IGSO-7,2018-057A,2026-06-14T22:10:34.125312,1.00251741,.0105015,55.1939,163.0777,237.9971,304.9149,0,U,43539,999,2910,0,-.11E-6,0
TELSTAR 19V,2018-059A,2026-06-15T05:55:00.579936,1.00269701,.0002418,0.0197,163.3787,312.0896,173.8125,0,U,43562,999,2912,0,-.276E-5,0
TELKOM 4 (MERAH PUTIH),2018-064A,2026-06-15T06:43:40.912896,1.00270117,.0001226,0.0197,66.5028,48.8212,357.1595,0,U,43587,999,2886,0,-.34E-5,0
TELSTAR 18V,2018-069A,2026-06-14T18:53:42.897120,1.00270067,.00016127,0.0122,311.2047,128.7151,244.5797,0,U,43611,999,2861,0,-.288E-5,0
AZERSPACE 2 (IS-38),2018-074A,2026-06-15T11:33:49.611744,1.00269834,.0001187,0.0085,316.4310,126.2680,39.6323,0,U,43632,999,2843,0,.139E-5,0
HORIZONS-3E,2018-074B,2026-06-14T15:37:13.094400,1.00270601,.00009666,0.0187,163.9480,106.2603,36.0409,0,U,43633,999,2831,0,-.24E-6,0
